SL-8 R/B                
1 20775U 90078B   26062.52749292  .00018627  00000+0  54752-3 0  9990
2 20775  82.8989 256.8532 0363742  34.7004 327.7365 14.88816306808386
SL-8 R/B                
1 21088U 91006B   26062.82504994  .00000065  00000+0  49724-4 0  9992
2 21088  82.9464 174.4054 0023377  54.1372  64.7140 13.77493424763263
OKEAN-3                 
1 21397U 91039A   26062.82730825  .00004441  00000+0  31254-3 0  9995
2 21397  82.5199 342.5215 0014298 359.5425   0.5786 15.04754212864158
COSMOS 2151             
1 21422U 91042A   26062.94677642  .00002955  00000+0  23464-3 0  9990
2 21422  82.4928  89.2174 0014128  80.6706 279.6114 15.00078353862334
SL-14 R/B               
1 21423U 91042B   26062.81545747  .00000677  00000+0  82679-4 0  9990
2 21423  82.4912 225.6910 0015611 259.6022 100.3433 14.81822532852202
ERS-1                   
1 21574U 91050A   26062.64986237  .00000411  00000+0  14604-3 0  9998
2 21574  98.7885  80.7325 0031298 218.6202 141.2746 14.39443809814862
ARIANE 40 R/B           
1 21610U 91050F   26062.71518264  .00000399  00000+0  13200-3 0  9994
2 21610  98.2025 115.1756 0004362  94.1843 265.9846 14.42888539818131
INTERCOSMOS 25          
1 21819U 91086A   26062.79628528  .00001737  00000+0  33389-3 0  9994
2 21819  82.6063 313.5699 1487053 129.6285 244.5861 12.11981402495978
SL-8 R/B                
1 21876U 92008B   26062.68757399  .00000007  00000+0 -89890-5 0  9999
2 21876  82.9227 272.2443 0035249 149.6880 277.7695 13.75969819708599
SL-8 R/B                
1 21938U 92020B   26062.81166293  .00000098  00000+0  86285-4 0  9997
2 21938  82.9340 158.1246 0027895 315.8977 161.2475 13.75548716700324
USA 81                  
1 21949U 92023A   26062.72089490  .00000237  00000+0  80409-4 0  9992
2 21949  85.0096 134.8842 0002604  82.2583 277.8905 14.32365688 93933
COSMOS 2219             
1 22219U 92076A   26062.36678682  .00000301  00000+0  18266-3 0  9991
2 22219  71.0618  31.2845 0019333 215.5019 144.4818 14.14089002717482
SL-16 R/B               
1 22220U 92076B   26062.84662427  .00000048  00000+0  47970-4 0  9999
2 22220  70.9999 200.6805 0010604 107.2129   4.0235 14.16860043721004
COSMOS 2221             
1 22236U 92080A   26062.68518737  .00002269  00000+0  19891-3 0  9994
2 22236  82.5018 284.8336 0013508 208.1164 151.9330 14.96174040779892
SL-16 R/B               
1 22285U 92093B   26062.80320973 -.00000143  00000+0 -48818-4 0  9992
2 22285  71.0238  16.6219 0006301 299.9749  60.0748 14.15449511712321
COSMOS 2228             
1 22286U 92094A   26062.90602350  .00003603  00000+0  30889-3 0  9997
2 22286  82.5145 242.8493 0017177 325.3083  34.7018 14.97156138775193
SL-16 R/B               
1 22566U 93016B   26062.91373228  .00000326  00000+0  19177-3 0  9999
2 22566  71.0059 227.3123 0011387 322.1919  37.8403 14.15305477701350
